[{"OBJECT_NAME":"STARLINK-31026","OBJECT_ID":"2023-191A","EPOCH":"2026-03-09T18:55:44.334912","MEAN_MOTION":15.02546182,"ECCENTRICITY":0.00010954,"INCLINATION":43.0033,"RA_OF_ASC_NODE":106.5212,"ARG_OF_PERICENTER":273.098,"MEAN_ANOMALY":86.9737,"EPHEMERIS_TYPE":0,"CLASSIFICATION_TYPE":"U","NORAD_CAT_ID":58508,"ELEMENT_SET_NO":999,"REV_AT_EPOCH":12544,"BSTAR":-0.00010273813,"MEAN_MOTION_DOT":-1.591e-5,"MEAN_MOTION_DDOT":0},{"OBJECT_NAME":"HELIOS 1A","OBJECT_ID":"1995-033A","EPOCH":"2026-03-09T15:20:38.403168","MEAN_MOTION":15.05208405,"ECCENTRICITY":0.0012543,"INCLINATION":98.2085,"RA_OF_ASC_NODE":312.7113,"ARG_OF_PERICENTER":11.1866,"MEAN_ANOMALY":348.9636,"EPHEMERIS_TYPE":0,"CLASSIFICATION_TYPE":"U","NORAD_CAT_ID":23605,"ELEMENT_SET_NO":999,"REV_AT_EPOCH":65318,"BSTAR":0.00025897,"MEAN_MOTION_DOT":3.631e-5,"MEAN_MOTION_DDOT":0}]
